satname,norad_id,inclination_deg,eccentricity,mean_motion_rev_per_day,perigee_km,apogee_km,l1,l2
STARLINK-1284,45390,53.0537,0.0001183,15.16137515,516.7115640713664,518.3430782497535,1 45390U 20019AG  26009.91668980  .01248787  00000+0  59253-1 0  9998,2 45390  53.0537  50.2828 0001183  95.8767  71.4470 15.16137515  5784
STARLINK-1297,45395,53.0553,0.0001281,15.13993198,523.1526500136761,524.920986945971,1 45395U 20019AM  26009.91668980  .01739019  00000+0  86384-1 0  9991,2 45395  53.0553  50.3647 0001281 107.4183 176.4373 15.13993198  5780
STARLINK-1307,45397,53.055,0.0001623,15.18484894,509.30094633563385,511.536971599915,1 45397U 20019AP  26009.91668980  .01461921  00000+0  64019-1 0  9998,2 45397  53.0550  50.1991 0001623  56.2526 351.8665 15.18484894  5732
STARLINK-1255,45399,53.0479,0.0005214,15.42433802,435.3743711879051,442.4832073929774,1 45399U 20019AR  26009.35933884  .00115041  00000+0  25887-2 0  9995,2 45399  53.0479  25.9335 0005214  43.9816 316.1603 15.42433802321255
STARLINK-1260,45404,53.0549,0.0001415,15.0640459,546.217555454703,548.1774251154548,1 45404U 20019AW  26009.33646501  .00026348  00000+0  17809-2 0  9993,2 45404  53.0549  43.0631 0001415  85.1912 274.9239 15.06404590320914
STARLINK-1263,45405,53.0534,0.0001269,15.06385267,546.3778803672003,548.1355452915159,1 45405U 20019AX  26009.38804614 -.00000797  00000+0 -34618-4 0  9991,2 45405  53.0534  42.8334 0001269  89.3162 270.7972 15.06385267320924
STARLINK-1265,45406,53.0571,0.0001772,15.06408314,545.9589095936917,548.4132440921239,1 45406U 20019AY  26009.32906727  .00002366  00000+0  17764-3 0  9998,2 45406  53.0571  43.1010 0001772  92.5360 267.5832 15.06408314320913
STARLINK-1278,45408,53.0506,0.0004122,15.44219041,430.8659042398094,436.4815610077849,1 45408U 20019BA  26009.38546285  .00022669  00000+0  49347-3 0  9995,2 45408  53.0506  54.8562 0004122 301.4766  58.5836 15.44219041320762
STARLINK-1296,45412,53.0549,0.0001478,15.06407999,546.1634793703797,548.2106051572728,1 45412U 20019BE  26009.33275416  .00001900  00000+0  14640-3 0  9993,2 45412  53.0549  43.0808 0001478  92.3466 267.7692 15.06407999320911
STARLINK-1298,45413,53.0436,0.000704,15.69893288,354.4592144855196,363.94538822182585,1 45413U 20019BF  26009.91668980  .00223210  00000+0  17826-2 0  9998,2 45413  53.0436 349.7360 0007040  91.1764 225.0282 15.69893288  5893
STARLINK-1309,45414,53.0544,0.0001308,15.06400267,546.3049041375107,548.1165751061963,1 45414U 20019BG  26009.34750252  .00000464  00000+0  50041-4 0  9992,2 45414  53.0544  43.0171 0001308  92.3703 267.7436 15.06400267320903
STARLINK-1316,45415,53.0569,0.0001316,15.06413115,546.2599920632829,548.0827332243307,1 45415U 20019BH  26009.37329785  .00000330  00000+0  41057-4 0  9998,2 45415  53.0569  42.9000 0001316  98.3281 261.7858 15.06413115320948
STARLINK-1318,45416,53.0473,0.0005227,15.76572968,336.6471869477591,343.6704934190875,1 45416U 20019BJ  26009.91668980  .00190782  00000+0  11508-2 0  9999,2 45416  53.0473 337.6326 0005227  85.7868 306.2048 15.76572968  6018
STARLINK-1286,45417,53.051,0.0001739,15.44448051,431.81589122565947,434.18480479529717,1 45417U 20019BK  26009.41283230  .00041925  00000+0  89591-3 0  9998,2 45417  53.0510  54.4249 0001739 334.9281  25.1640 15.44448051321049
STARLINK-1308,45419,53.0555,0.0001359,15.16521087,515.4275675523095,517.3014930682484,1 45419U 20019BM  26009.91668980  .01217186  00000+0  56475-1 0  9992,2 45419  53.0555  70.2179 0001359  91.1231 277.0331 15.16521087  5788
STARLINK-1329,45531,53.0569,0.0004998,15.45026041,427.8981995021468,434.70491428361765,1 45531U 20025A   26009.25797351  .00166162  00000+0  33995-2 0  9995,2 45531  53.0569   6.5364 0004998  47.1601 312.9824 15.45026041316233
STARLINK-1338,45532,53.0551,0.0003198,15.43117431,434.7357977271613,439.0947051471803,1 45532U 20025B   26009.27003898  .00129760  00000+0  28478-2 0  9997,2 45532  53.0551   9.3126 0003198  58.3838 301.7479 15.43117431316198
STARLINK-1350,45535,53.0749,0.0002205,15.34466437,460.9974208332287,464.0141443003404,1 45535U 20025E   26009.55150638  .00013049  00000+0  39582-3 0  9997,2 45535  53.0749 310.5271 0002205  96.7616 263.3637 15.34466437317076
STARLINK-1362,45538,53.0563,0.0001544,15.06408999,546.1147078777558,548.2532469955877,1 45538U 20025H   26009.28662304  .00001604  00000+0  12654-3 0  9993,2 45538  53.0563  13.0090 0001544  96.7356 263.3809 15.06408999316149
STARLINK-1368,45540,53.0551,0.0001478,15.06406374,546.1684589856413,548.2155862447262,1 45540U 20025K   26009.29128698  .00001683  00000+0  13186-3 0  9998,2 45540  53.0551  13.2683 0001478  95.6097 264.5060 15.06406374316131
STARLINK-1371,45542,53.0551,0.0001323,15.38294216,450.2497187398876,452.05674893575997,1 45542U 20025M   26009.91668980  .00115168  00000+0  29716-2 0  9991,2 45542  53.0551   8.3659 0001323  96.0820 211.2252 15.38294216  5726
STARLINK-1372,45543,53.0557,0.0001389,15.06407704,546.2260187534303,548.1498740235384,1 45543U 20025N   26009.29865929 -.00000421  00000+0 -93714-5 0  9994,2 45543  53.0557  13.2346 0001389  92.9331 267.1817 15.06407704315235
STARLINK-1373,45544,53.0548,0.0001207,15.36102651,456.8221984691272,458.47235679374717,1 45544U 20025P   26009.91668980  .01704580  00000+0  43189-1 0  9995,2 45544  53.0548   8.8642 0001207 111.2058   2.4302 15.36102651  5786
STARLINK-1294,45551,53.0403,0.0003492,15.75080697,342.05404806153183,346.74906899080725,1 45551U 20025W   26009.02913799  .00124799  00000+0  81162-3 0  9998,2 45551  53.0403 277.6003 0003492 171.1714 188.9367 15.75080697317463
STARLINK-1325,45554,53.043,0.00088,15.91483033,292.256971989862,304.0072055861292,1 45554U 20025Z   26009.91668980  .00287650  42024-4  87625-3 0  9991,2 45554  53.0430 261.7918 0008800 140.5227  12.7598 15.91483033  5948
STARLINK-1327,45555,53.0543,0.000161,15.42591091,437.36791085424284,439.562856821839,1 45555U 20025AA  26009.91668980  .00062929  00000+0  14229-2 0  9994,2 45555  53.0543 347.8236 0001610  94.4607 340.7186 15.42591091  5738
STARLINK-1356,45564,53.0556,0.0001609,15.10107913,534.7581342065687,536.9830618516144,1 45564U 20025AK  26009.91668980  .00063762  00000+0  38518-2 0  9997,2 45564  53.0556 350.4314 0001609  76.5878  81.8661 15.10107913  5730
STARLINK-1357,45565,53.0595,0.0005207,15.44931673,428.0330258677386,435.12466394862713,1 45565U 20025AL  26009.17854487  .00103391  00000+0  21426-2 0  9998,2 45565  53.0595 323.2904 0005207  76.5598 283.5988 15.44931673316838
STARLINK-1361,45567,53.0551,0.0001347,15.09565486,536.5952167399055,538.4582965559466,1 45567U 20025AN  26009.91668980  .01232024  00000+0  70253-1 0  9991,2 45567  53.0551 350.4325 0001347  94.2215 324.1094 15.09565486  5780
STARLINK-1363,45568,53.0508,0.0008495,15.53843592,399.7535358777286,411.2789627483098,1 45568U 20025AP  26009.60122247  .00036383  00000+0  56006-3 0  9990,2 45568  53.0508 328.8965 0008495  22.3435 337.7944 15.53843592316784
STARLINK-1366,45569,53.0504,0.0011551,15.53596463,398.3989806297395,414.0722382320464,1 45569U 20025AQ  26009.91668980  .00124137  00000+0  18872-2 0  9997,2 45569  53.0504 327.9682 0011551  51.5819 276.5631 15.53596463  5896
STARLINK-1376,45570,53.1054,0.000209,15.17986189,510.48758740858193,513.367634415943,1 45570U 20025AR  26009.91668980  .01502178  00000+0  66565-1 0  9996,2 45570  53.1054 350.2173 0002090 101.4800  96.4474 15.17986189  5832
STARLINK-1320,45572,53.0533,0.0007206,15.55387351,396.1418160093963,405.91194699541666,1 45572U 20025AT  26009.43464677  .00042886  00000+0  62251-3 0  9996,2 45572  53.0533 275.2609 0007206 130.0157 230.1487 15.55387351317545
STARLINK-1321,45573,53.0554,0.000182,15.3917733,447.29829255309596,449.78320325333243,1 45573U 20025AU  26009.91668980  .00098437  00000+0  24747-2 0  9993,2 45573  53.0554 337.7198 0001820  85.6057  20.2305 15.39177330  5835
STARLINK-1328,45576,53.0419,0.0002499,16.12907705,237.22508524401837,240.53226967961473,1 45576U 20025AX  26009.01696892  .01092096  77489-3  93904-3 0  9997,2 45576  53.0419 281.5524 0002499 224.9395 135.1438 16.12907705317404
STARLINK-1331,45578,53.0563,0.0001524,15.06390533,546.1851455395954,548.2960006238709,1 45578U 20025AZ  26009.20560529  .00002119  00000+0  16115-3 0  9993,2 45578  53.0563 343.6526 0001524  91.2587 268.8577 15.06390533316554
STARLINK-1333,45580,53.0899,0.0001246,15.14774975,520.8020863220409,522.5215161833121,1 45580U 20025BB  26009.91668980  .01506924  00000+0  73103-1 0  9996,2 45580  53.0899 350.3338 0001246  99.7021 193.6244 15.14774975  5783
STARLINK-1335,45581,53.0542,0.0001532,15.06394147,546.1685304510947,548.2904627456528,1 45581U 20025BC  26009.61473518  .00006592  00000+0  46113-3 0  9993,2 45581  53.0542 341.8167 0001532 101.9587 258.1573 15.06394147316603
STARLINK-1337,45582,53.0542,0.0001636,15.08857678,538.5575985261967,540.8211113095258,1 45582U 20025BD  26009.91668980  .01885886  00000+0  10872+0 0  9997,2 45582  53.0542 340.4479 0001636  62.0032  24.3807 15.08857678  5739
STARLINK-1347,45586,53.0524,0.0005635,15.4346457,432.05366284038064,439.7330750661904,1 45586U 20025BH  26009.16072693  .00068859  00000+0  15093-2 0  9993,2 45586  53.0524 314.3438 0005635  85.8362 274.3287 15.43464570316941
STARLINK-1364,45589,53.0542,0.0001764,15.1183449,529.3868398578088,531.8242442266401,1 45589U 20025BL  26009.91668980  .00100912  00000+0  57722-2 0  9991,2 45589  53.0542 340.4263 0001764  55.3516  21.7047 15.11834490  5830
STARLINK-1365,45590,53.0559,0.0001515,15.0694078,544.50570150966,546.6035800768204,1 45590U 20025BM  26008.46138156  .00068902  00000+0  45330-2 0  9993,2 45590  53.0559  16.9859 0001515  59.1307 300.9831 15.06940780316023
STARLINK-1443,45660,53.0557,0.0001412,15.06411536,546.1983477612748,548.154056209516,1 45660U 20035D   26009.17702267  .00006066  00000+0  42563-3 0  9990,2 45660  53.0557 333.7811 0001412  95.0011 265.1139 15.06411536309762
